[{"OBJECT_NAME":"ELECTRON R/B","OBJECT_ID":"2026-056B","EPOCH":"2026-03-28T04:38:35.221344","MEAN_MOTION":15.93332419,"ECCENTRICITY":0.01903647,"INCLINATION":50.2615,"RA_OF_ASC_NODE":8.0352,"ARG_OF_PERICENTER":279.8305,"MEAN_ANOMALY":78.1238,"EPHEMERIS_TYPE":0,"CLASSIFICATION_TYPE":"U","NORAD_CAT_ID":68292,"ELEMENT_SET_NO":999,"REV_AT_EPOCH":117,"BSTAR":0.0011130421,"MEAN_MOTION_DOT":0.02892678,"MEAN_MOTION_DDOT":1.0955174e-5},{"OBJECT_NAME":"ELECTRON KICK STAGE R/B","OBJECT_ID":"2026-056C","EPOCH":"2026-03-28T04:29:05.573184","MEAN_MOTION":15.39474978,"ECCENTRICITY":0.01578614,"INCLINATION":50.293,"RA_OF_ASC_NODE":10.3649,"ARG_OF_PERICENTER":40.7687,"MEAN_ANOMALY":320.4967,"EPHEMERIS_TYPE":0,"CLASSIFICATION_TYPE":"U","NORAD_CAT_ID":68293,"ELEMENT_SET_NO":999,"REV_AT_EPOCH":115,"BSTAR":0.0016726262,"MEAN_MOTION_DOT":0.00104826,"MEAN_MOTION_DDOT":0},{"OBJECT_NAME":"STARLINK-37107","OBJECT_ID":"2026-057A","EPOCH":"2026-03-28T06:00:02.000160","MEAN_MOTION":16.02562588,"ECCENTRICITY":0.00014549,"INCLINATION":97.2818,"RA_OF_ASC_NODE":210.3132,"ARG_OF_PERICENTER":52.6584,"MEAN_ANOMALY":42.3451,"EPHEMERIS_TYPE":0,"CLASSIFICATION_TYPE":"U","NORAD_CAT_ID":68294,"ELEMENT_SET_NO":999,"REV_AT_EPOCH":214,"BSTAR":-0.0014441275,"MEAN_MOTION_DOT":-0.00846351,"MEAN_MOTION_DDOT":0.00024773298},{"OBJECT_NAME":"STARLINK-37147","OBJECT_ID":"2026-057B","EPOCH":"2026-03-28T06:00:02.000160","MEAN_MOTION":16.0265674,"ECCENTRICITY":0.0001426,"INCLINATION":97.2815,"RA_OF_ASC_NODE":210.3139,"ARG_OF_PERICENTER":51.9769,"MEAN_ANOMALY":45.1095,"EPHEMERIS_TYPE":0,"CLASSIFICATION_TYPE":"U","NORAD_CAT_ID":68295,"ELEMENT_SET_NO":999,"REV_AT_EPOCH":213,"BSTAR":-0.0014298038,"MEAN_MOTION_DOT":-0.00842605,"MEAN_MOTION_DDOT":0.00024597301},{"OBJECT_NAME":"STARLINK-37142","OBJECT_ID":"2026-057C","EPOCH":"2026-03-28T06:00:02.000160","MEAN_MOTION":16.03015537,"ECCENTRICITY":0.00014673,"INCLINATION":97.2811,"RA_OF_ASC_NODE":210.3169,"ARG_OF_PERICENTER":50.1826,"MEAN_ANOMALY":53.6876,"EPHEMERIS_TYPE":0,"CLASSIFICATION_TYPE":"U","NORAD_CAT_ID":68296,"ELEMENT_SET_NO":999,"REV_AT_EPOCH":202,"BSTAR":-0.0013886095,"MEAN_MOTION_DOT":-0.00835788,"MEAN_MOTION_DDOT":0.00024331969},{"OBJECT_NAME":"STARLINK-37115","OBJECT_ID":"2026-057D","EPOCH":"2026-03-28T06:00:02.000160","MEAN_MOTION":16.02912245,"ECCENTRICITY":0.00013915,"INCLINATION":97.281,"RA_OF_ASC_NODE":210.315,"ARG_OF_PERICENTER":55.8787,"MEAN_ANOMALY":45.9348,"EPHEMERIS_TYPE":0,"CLASSIFICATION_TYPE":"U","NORAD_CAT_ID":68297,"ELEMENT_SET_NO":999,"REV_AT_EPOCH":202,"BSTAR":-0.0014224628,"MEAN_MOTION_DOT":-0.00850865,"MEAN_MOTION_DDOT":0.00025122629},{"OBJECT_NAME":"STARLINK-36355","OBJECT_ID":"2026-057E","EPOCH":"2026-03-28T06:00:02.000160","MEAN_MOTION":16.02771685,"ECCENTRICITY":0.0001305,"INCLINATION":97.2812,"RA_OF_ASC_NODE":210.3146,"ARG_OF_PERICENTER":57.8457,"MEAN_ANOMALY":41.3365,"EPHEMERIS_TYPE":0,"CLASSIFICATION_TYPE":"U","NORAD_CAT_ID":68298,"ELEMENT_SET_NO":999,"REV_AT_EPOCH":229,"BSTAR":-0.001420808,"MEAN_MOTION_DOT":-0.00842939,"MEAN_MOTION_DDOT":0.00024648784},{"OBJECT_NAME":"STARLINK-37118","OBJECT_ID":"2026-057F","EPOCH":"2026-03-28T06:00:02.000160","MEAN_MOTION":16.03276185,"ECCENTRICITY":0.00013598,"INCLINATION":97.2808,"RA_OF_ASC_NODE":210.3186,"ARG_OF_PERICENTER":53.8233,"MEAN_ANOMALY":54.7894,"EPHEMERIS_TYPE":0,"CLASSIFICATION_TYPE":"U","NORAD_CAT_ID":68299,"ELEMENT_SET_NO":999,"REV_AT_EPOCH":213,"BSTAR":-0.0013733092,"MEAN_MOTION_DOT":-0.00839326,"MEAN_MOTION_DDOT":0.0002459963},{"OBJECT_NAME":"STARLINK-36875","OBJECT_ID":"2026-057G","EPOCH":"2026-03-28T06:00:02.000160","MEAN_MOTION":16.03167303,"ECCENTRICITY":0.00013757,"INCLINATION":97.281,"RA_OF_ASC_NODE":210.3176,"ARG_OF_PERICENTER":53.5762,"MEAN_ANOMALY":53.0171,"EPHEMERIS_TYPE":0,"CLASSIFICATION_TYPE":"U","NORAD_CAT_ID":68300,"ELEMENT_SET_NO":999,"REV_AT_EPOCH":219,"BSTAR":-0.0013879501,"MEAN_MOTION_DOT":-0.00842824,"MEAN_MOTION_DDOT":0.00024758293},{"OBJECT_NAME":"STARLINK-37099","OBJECT_ID":"2026-057H","EPOCH":"2026-03-28T06:00:02.000160","MEAN_MOTION":16.03430495,"ECCENTRICITY":0.00013899,"INCLINATION":97.2807,"RA_OF_ASC_NODE":210.3201,"ARG_OF_PERICENTER":55.4923,"MEAN_ANOMALY":56.0083,"EPHEMERIS_TYPE":0,"CLASSIFICATION_TYPE":"U","NORAD_CAT_ID":68301,"ELEMENT_SET_NO":999,"REV_AT_EPOCH":202,"BSTAR":-0.0013617651,"MEAN_MOTION_DOT":-0.00839891,"MEAN_MOTION_DDOT":0.0002467566},{"OBJECT_NAME":"STARLINK-37007","OBJECT_ID":"2026-057J","EPOCH":"2026-03-28T06:00:02.000160","MEAN_MOTION":16.03747179,"ECCENTRICITY":0.00013613,"INCLINATION":97.2802,"RA_OF_ASC_NODE":210.3223,"ARG_OF_PERICENTER":51.229,"MEAN_ANOMALY":65.9553,"EPHEMERIS_TYPE":0,"CLASSIFICATION_TYPE":"U","NORAD_CAT_ID":68302,"ELEMENT_SET_NO":999,"REV_AT_EPOCH":224,"BSTAR":-0.0013620914,"MEAN_MOTION_DOT":-0.00855884,"MEAN_MOTION_DDOT":0.00025651974},{"OBJECT_NAME":"STARLINK-36300","OBJECT_ID":"2026-057K","EPOCH":"2026-03-28T06:00:02.000160","MEAN_MOTION":16.03594964,"ECCENTRICITY":0.00013007,"INCLINATION":97.2804,"RA_OF_ASC_NODE":210.3211,"ARG_OF_PERICENTER":53.7893,"MEAN_ANOMALY":60.7874,"EPHEMERIS_TYPE":0,"CLASSIFICATION_TYPE":"U","NORAD_CAT_ID":68303,"ELEMENT_SET_NO":999,"REV_AT_EPOCH":229,"BSTAR":-0.0013452118,"MEAN_MOTION_DOT":-0.00837799,"MEAN_MOTION_DDOT":0.00024609987},{"OBJECT_NAME":"STARLINK-36849","OBJECT_ID":"2026-057L","EPOCH":"2026-03-28T06:00:02.000160","MEAN_MOTION":16.03867048,"ECCENTRICITY":0.00013848,"INCLINATION":97.2804,"RA_OF_ASC_NODE":210.3233,"ARG_OF_PERICENTER":56.3848,"MEAN_ANOMALY":62.8062,"EPHEMERIS_TYPE":0,"CLASSIFICATION_TYPE":"U","NORAD_CAT_ID":68304,"ELEMENT_SET_NO":999,"REV_AT_EPOCH":219,"BSTAR":-0.0013807051,"MEAN_MOTION_DOT":-0.00873654,"MEAN_MOTION_DDOT":0.00026687172},{"OBJECT_NAME":"STARLINK-36277","OBJECT_ID":"2026-057M","EPOCH":"2026-03-28T06:00:02.000160","MEAN_MOTION":16.04152549,"ECCENTRICITY":0.00014698,"INCLINATION":97.28,"RA_OF_ASC_NODE":210.3251,"ARG_OF_PERICENTER":56.8308,"MEAN_ANOMALY":67.1203,"EPHEMERIS_TYPE":0,"CLASSIFICATION_TYPE":"U","NORAD_CAT_ID":68305,"ELEMENT_SET_NO":999,"REV_AT_EPOCH":235,"BSTAR":-0.0014483875,"MEAN_MOTION_DOT":-0.00931754,"MEAN_MOTION_DDOT":0.00030173585},{"OBJECT_NAME":"STARLINK-36307","OBJECT_ID":"2026-057N","EPOCH":"2026-03-28T06:00:02.000160","MEAN_MOTION":16.03985629,"ECCENTRICITY":0.00014353,"INCLINATION":97.2804,"RA_OF_ASC_NODE":210.3242,"ARG_OF_PERICENTER":53.7374,"MEAN_ANOMALY":67.4183,"EPHEMERIS_TYPE":0,"CLASSIFICATION_TYPE":"U","NORAD_CAT_ID":68306,"ELEMENT_SET_NO":999,"REV_AT_EPOCH":229,"BSTAR":-0.0013956616,"MEAN_MOTION_DOT":-0.00889262,"MEAN_MOTION_DDOT":0.0002761748},{"OBJECT_NAME":"STARLINK-36264","OBJECT_ID":"2026-057P","EPOCH":"2026-03-28T06:00:02.000160","MEAN_MOTION":16.04328519,"ECCENTRICITY":0.0001467,"INCLINATION":97.2801,"RA_OF_ASC_NODE":210.3265,"ARG_OF_PERICENTER":52.6492,"MEAN_ANOMALY":74.3027,"EPHEMERIS_TYPE":0,"CLASSIFICATION_TYPE":"U","NORAD_CAT_ID":68307,"ELEMENT_SET_NO":999,"REV_AT_EPOCH":235,"BSTAR":-0.0015036616,"MEAN_MOTION_DOT":-0.00977153,"MEAN_MOTION_DDOT":0.00033022409}]
