ELECTRON R/B            
1 68292U 26056B   26087.19346321  .02892678  10955-4  11130-2 0  9992
2 68292  50.2615   8.0352 0190364 279.8305  78.1238 15.93332419  1171
ELECTRON KICK STAGE R/B 
1 68293U 26056C   26087.18687006  .00104826  00000+0  16726-2 0  9990
2 68293  50.2930  10.3649 0157861  40.7687 320.4967 15.39474978  1157
STARLINK-37107          
1 68294U 26057A   26087.25002315 -.00846351  24773-3 -14441-2 0  9991
2 68294  97.2818 210.3132 0001454  52.6584  42.3451 16.02562588  2141
STARLINK-37147          
1 68295U 26057B   26087.25002315 -.00842605  24597-3 -14298-2 0  9994
2 68295  97.2815 210.3139 0001426  51.9769  45.1095 16.02656740  2130
STARLINK-37142          
1 68296U 26057C   26087.25002315 -.00835788  24332-3 -13886-2 0  9998
2 68296  97.2811 210.3169 0001467  50.1826  53.6876 16.03015537  2023
STARLINK-37115          
1 68297U 26057D   26087.25002315 -.00850865  25123-3 -14225-2 0  9999
2 68297  97.2810 210.3150 0001391  55.8787  45.9348 16.02912245  2026
STARLINK-36355          
1 68298U 26057E   26087.25002315 -.00842939  24649-3 -14208-2 0  9996
2 68298  97.2812 210.3146 0001305  57.8457  41.3365 16.02771685  2294
STARLINK-37118          
1 68299U 26057F   26087.25002315 -.00839326  24600-3 -13733-2 0  9992
2 68299  97.2808 210.3186 0001359  53.8233  54.7894 16.03276185  2135
STARLINK-36875          
1 68300U 26057G   26087.25002315 -.00842824  24758-3 -13880-2 0  9999
2 68300  97.2810 210.3176 0001375  53.5762  53.0171 16.03167303  2199
STARLINK-37099          
1 68301U 26057H   26087.25002315 -.00839891  24676-3 -13618-2 0  9998
2 68301  97.2807 210.3201 0001389  55.4923  56.0083 16.03430495  2022
STARLINK-37007          
1 68302U 26057J   26087.25002315 -.00855884  25652-3 -13621-2 0  9998
2 68302  97.2802 210.3223 0001361  51.2290  65.9553 16.03747179  2248
STARLINK-36300          
1 68303U 26057K   26087.25002315 -.00837799  24610-3 -13452-2 0  9999
2 68303  97.2804 210.3211 0001300  53.7893  60.7874 16.03594964  2293
STARLINK-36849          
1 68304U 26057L   26087.25002315 -.00873654  26687-3 -13807-2 0  9990
2 68304  97.2804 210.3233 0001384  56.3848  62.8062 16.03867048  2196
STARLINK-36277          
1 68305U 26057M   26087.25002315 -.00931754  30174-3 -14484-2 0  9995
2 68305  97.2800 210.3251 0001469  56.8308  67.1203 16.04152549  2350
STARLINK-36307          
1 68306U 26057N   26087.25002315 -.00889262  27617-3 -13957-2 0  9994
2 68306  97.2804 210.3242 0001435  53.7374  67.4183 16.03985629  2292
STARLINK-36264          
1 68307U 26057P   26087.25002315 -.00977153  33022-3 -15037-2 0  9990
2 68307  97.2801 210.3265 0001467  52.6492  74.3027 16.04328519  2350
